{
  "type": "FeatureCollection",
  "features": [
    {
      "type": "Feature",
      "properties": {
        "name": "Bay Area RoboTaxi Operational Zone",
        "status": "Active Service Network",
        "market": "Bay Area",
        "color": "#41e0e6"
      },
      "geometry": {
        "type": "Polygon",
        "coordinates": [
          [
            [-122.5200, 37.7950],
            [-122.3700, 37.8100],
            [-122.3800, 37.7100],
            [-122.4800, 37.7000],
            [-122.5200, 37.7950]
          ]
        ]
      }
    },
    {
      "type": "Feature",
      "properties": {
        "name": "Austin RoboTaxi Operational Zone",
        "status": "Active Service Network",
        "market": "Austin",
        "color": "#41e0e6"
      },
      "geometry": {
        "type": "Polygon",
        "coordinates": [
          [
            [-97.7785, 30.2954],
            [-97.7212, 30.2954],
            [-97.6980, 30.2680],
            [-97.7125, 30.2312],
            [-97.7650, 30.2280],
            [-97.7920, 30.2580],
            [-97.7785, 30.2954]
          ]
        ]
      }
    },
    {
      "type": "Feature",
      "properties": {
        "name": "Dallas Metro Transit Zone",
        "status": "Active Service Network",
        "market": "Dallas - Fort Worth",
        "color": "#41e0e6"
      },
      "geometry": {
        "type": "Polygon",
        "coordinates": [
          [
            [-96.8400, 32.8300],
            [-96.7500, 32.8300],
            [-96.7400, 32.7500],
            [-96.8300, 32.7400],
            [-96.8400, 32.8300]
          ]
        ]
      }
    },
    {
      "type": "Feature",
      "properties": {
        "name": "Houston Urban Corridor",
        "status": "Active Service Network",
        "market": "Houston",
        "color": "#41e0e6"
      },
      "geometry": {
        "type": "Polygon",
        "coordinates": [
          [
            [-95.4200, 29.8000],
            [-95.3300, 29.8000],
            [-95.3200, 29.7200],
            [-95.4100, 29.7100],
            [-95.4200, 29.8000]
          ]
        ]
      }
    },
    {
      "type": "Feature",
      "properties": {
        "name": "Tampa RoboTaxi Operational Zone",
        "status": "Active Service Network",
        "market": "Tampa",
        "color": "#41e0e6"
      },
      "geometry": {
        "type": "Polygon",
        "coordinates": [
          [
            [-82.5400, 28.0100],
            [-82.3900, 28.0100],
            [-82.3900, 27.8900],
            [-82.5400, 27.8900],
            [-82.5400, 28.0100]
          ]
        ]
      }
    },
    {
      "type": "Feature",
      "properties": {
        "name": "Orlando RoboTaxi Operational Zone",
        "status": "Active Service Network",
        "market": "Orlando",
        "color": "#41e0e6"
      },
      "geometry": {
        "type": "Polygon",
        "coordinates": [
          [
            [-81.4500, 28.6000],
            [-81.3100, 28.6000],
            [-81.3100, 28.4800],
            [-81.4500, 28.4800],
            [-81.4500, 28.6000]
          ]
        ]
      }
    },
    {
      "type": "Feature",
      "properties": {
        "name": "Miami RoboTaxi Operational Zone",
        "status": "Active Service Network",
        "market": "Miami",
        "color": "#41e0e6"
      },
      "geometry": {
        "type": "Polygon",
        "coordinates": [
          [
            [-80.2500, 25.8600],
            [-80.1200, 25.8600],
            [-80.1200, 25.7200],
            [-80.2400, 25.7200],
            [-80.2500, 25.8600]
          ]
        ]
      }
    }
  ]
}
